CCSDS_OMM_VERS = 2.0
CREATION_DATE  = 
ORIGINATOR     = 

OBJECT_NAME    = ATLAS CENTAUR 2
OBJECT_ID      = 1963-047A
CENTER_NAME    = EARTH
REF_FRAME      = TEME
TIME_SYSTEM    = UTC
MEAN_ELEMENT_THEORY = SGP/SGP4

EPOCH          = 2026-03-27T10:20:21.363648
MEAN_MOTION    = 14.12135310
ECCENTRICITY   = .05474324
INCLINATION    = 30.3569
RA_OF_ASC_NODE = 96.4880
ARG_OF_PERICENTER = 236.6552
MEAN_ANOMALY   = 118.0487

EPHEMERIS_TYPE = 0
CLASSIFICATION_TYPE = U
NORAD_CAT_ID   = 694
ELEMENT_SET_NO = 999
REV_AT_EPOCH   = 13413
BSTAR          = .23623808E-3
MEAN_MOTION_DOT = .2052E-4
MEAN_MOTION_DDOT = 0

CCSDS_OMM_VERS = 2.0
CREATION_DATE  = 
ORIGINATOR     = 

OBJECT_NAME    = THOR AGENA D R/B
OBJECT_ID      = 1964-002A
CENTER_NAME    = EARTH
REF_FRAME      = TEME
TIME_SYSTEM    = UTC
MEAN_ELEMENT_THEORY = SGP/SGP4

EPOCH          = 2026-03-27T14:14:33.271296
MEAN_MOTION    = 14.34029199
ECCENTRICITY   = .00325098
INCLINATION    = 99.1216
RA_OF_ASC_NODE = 100.9066
ARG_OF_PERICENTER = 204.7675
MEAN_ANOMALY   = 155.1949

EPHEMERIS_TYPE = 0
CLASSIFICATION_TYPE = U
NORAD_CAT_ID   = 733
ELEMENT_SET_NO = 999
REV_AT_EPOCH   = 24086
BSTAR          = .79593637E-4
MEAN_MOTION_DOT = .175E-5
MEAN_MOTION_DDOT = 0

CCSDS_OMM_VERS = 2.0
CREATION_DATE  = 
ORIGINATOR     = 

OBJECT_NAME    = SL-3 R/B
OBJECT_ID      = 1964-053B
CENTER_NAME    = EARTH
REF_FRAME      = TEME
TIME_SYSTEM    = UTC
MEAN_ELEMENT_THEORY = SGP/SGP4

EPOCH          = 2026-03-27T11:37:58.316736
MEAN_MOTION    = 14.61379854
ECCENTRICITY   = .00803682
INCLINATION    = 65.0755
RA_OF_ASC_NODE = 279.0643
ARG_OF_PERICENTER = 286.6257
MEAN_ANOMALY   = 72.6030

EPHEMERIS_TYPE = 0
CLASSIFICATION_TYPE = U
NORAD_CAT_ID   = 877
ELEMENT_SET_NO = 999
REV_AT_EPOCH   = 26939
BSTAR          = .5613048E-4
MEAN_MOTION_DOT = .165E-5
MEAN_MOTION_DDOT = 0

CCSDS_OMM_VERS = 2.0
CREATION_DATE  = 
ORIGINATOR     = 

OBJECT_NAME    = SL-8 R/B
OBJECT_ID      = 1967-045B
CENTER_NAME    = EARTH
REF_FRAME      = TEME
TIME_SYSTEM    = UTC
MEAN_ELEMENT_THEORY = SGP/SGP4

EPOCH          = 2026-03-27T08:38:12.120000
MEAN_MOTION    = 14.45636329
ECCENTRICITY   = .00648287
INCLINATION    = 74.0113
RA_OF_ASC_NODE = 315.0908
ARG_OF_PERICENTER = 317.4341
MEAN_ANOMALY   = 42.1801

EPHEMERIS_TYPE = 0
CLASSIFICATION_TYPE = U
NORAD_CAT_ID   = 2802
ELEMENT_SET_NO = 999
REV_AT_EPOCH   = 9157
BSTAR          = .84245509E-4
MEAN_MOTION_DOT = .277E-5
MEAN_MOTION_DDOT = 0

CCSDS_OMM_VERS = 2.0
CREATION_DATE  = 
ORIGINATOR     = 

OBJECT_NAME    = SL-8 R/B
OBJECT_ID      = 1968-040B
CENTER_NAME    = EARTH
REF_FRAME      = TEME
TIME_SYSTEM    = UTC
MEAN_ELEMENT_THEORY = SGP/SGP4

EPOCH          = 2026-03-27T14:40:01.437600
MEAN_MOTION    = 15.03372536
ECCENTRICITY   = .00232916
INCLINATION    = 74.0292
RA_OF_ASC_NODE = 277.0692
ARG_OF_PERICENTER = 93.7770
MEAN_ANOMALY   = 266.6083

EPHEMERIS_TYPE = 0
CLASSIFICATION_TYPE = U
NORAD_CAT_ID   = 3230
ELEMENT_SET_NO = 999
REV_AT_EPOCH   = 9270
BSTAR          = .25669594E-3
MEAN_MOTION_DOT = .3468E-4
MEAN_MOTION_DDOT = 0

CCSDS_OMM_VERS = 2.0
CREATION_DATE  = 
ORIGINATOR     = 

OBJECT_NAME    = OAO 2
OBJECT_ID      = 1968-110A
CENTER_NAME    = EARTH
REF_FRAME      = TEME
TIME_SYSTEM    = UTC
MEAN_ELEMENT_THEORY = SGP/SGP4

EPOCH          = 2026-03-27T12:18:27.393120
MEAN_MOTION    = 14.47317427
ECCENTRICITY   = .00058462
INCLINATION    = 34.9925
RA_OF_ASC_NODE = 165.7095
ARG_OF_PERICENTER = 335.3266
MEAN_ANOMALY   = 24.7144

EPHEMERIS_TYPE = 0
CLASSIFICATION_TYPE = U
NORAD_CAT_ID   = 3597
ELEMENT_SET_NO = 999
REV_AT_EPOCH   = 2168
BSTAR          = .61027234E-4
MEAN_MOTION_DOT = .207E-5
MEAN_MOTION_DDOT = 0

CCSDS_OMM_VERS = 2.0
CREATION_DATE  = 
ORIGINATOR     = 

OBJECT_NAME    = ISIS 1
OBJECT_ID      = 1969-009A
CENTER_NAME    = EARTH
REF_FRAME      = TEME
TIME_SYSTEM    = UTC
MEAN_ELEMENT_THEORY = SGP/SGP4

EPOCH          = 2026-03-27T14:19:46.488576
MEAN_MOTION    = 11.30418681
ECCENTRICITY   = .17078602
INCLINATION    = 88.4510
RA_OF_ASC_NODE = 153.3545
ARG_OF_PERICENTER = 53.0395
MEAN_ANOMALY   = 321.5145

EPHEMERIS_TYPE = 0
CLASSIFICATION_TYPE = U
NORAD_CAT_ID   = 3669
ELEMENT_SET_NO = 999
REV_AT_EPOCH   = 35055
BSTAR          = .57067753E-4
MEAN_MOTION_DOT = .1E-5
MEAN_MOTION_DDOT = 0

CCSDS_OMM_VERS = 2.0
CREATION_DATE  = 
ORIGINATOR     = 

OBJECT_NAME    = SERT 2
OBJECT_ID      = 1970-009A
CENTER_NAME    = EARTH
REF_FRAME      = TEME
TIME_SYSTEM    = UTC
MEAN_ELEMENT_THEORY = SGP/SGP4

EPOCH          = 2026-03-27T14:45:56.976192
MEAN_MOTION    = 13.58731435
ECCENTRICITY   = .00056116
INCLINATION    = 99.2781
RA_OF_ASC_NODE = 28.7301
ARG_OF_PERICENTER = 114.2037
MEAN_ANOMALY   = 59.6014

EPHEMERIS_TYPE = 0
CLASSIFICATION_TYPE = U
NORAD_CAT_ID   = 4327
ELEMENT_SET_NO = 999
REV_AT_EPOCH   = 78232
BSTAR          = .56330325E-4
MEAN_MOTION_DOT = 0
MEAN_MOTION_DDOT = 0

CCSDS_OMM_VERS = 2.0
CREATION_DATE  = 
ORIGINATOR     = 

OBJECT_NAME    = SL-3 R/B
OBJECT_ID      = 1971-028B
CENTER_NAME    = EARTH
REF_FRAME      = TEME
TIME_SYSTEM    = UTC
MEAN_ELEMENT_THEORY = SGP/SGP4

EPOCH          = 2026-03-27T12:43:54.214176
MEAN_MOTION    = 15.62685847
ECCENTRICITY   = .0014253
INCLINATION    = 81.2367
RA_OF_ASC_NODE = 29.9701
ARG_OF_PERICENTER = 210.9908
MEAN_ANOMALY   = 149.0506

EPHEMERIS_TYPE = 0
CLASSIFICATION_TYPE = U
NORAD_CAT_ID   = 5118
ELEMENT_SET_NO = 999
REV_AT_EPOCH   = 99145
BSTAR          = .48222817E-3
MEAN_MOTION_DOT = .43578E-3
MEAN_MOTION_DDOT = 0

CCSDS_OMM_VERS = 2.0
CREATION_DATE  = 
ORIGINATOR     = 

OBJECT_NAME    = ASTEX 1
OBJECT_ID      = 1971-089A
CENTER_NAME    = EARTH
REF_FRAME      = TEME
TIME_SYSTEM    = UTC
MEAN_ELEMENT_THEORY = SGP/SGP4

EPOCH          = 2026-03-27T11:30:19.696896
MEAN_MOTION    = 14.50787331
ECCENTRICITY   = .00165812
INCLINATION    = 92.7095
RA_OF_ASC_NODE = 157.5097
ARG_OF_PERICENTER = 32.3231
MEAN_ANOMALY   = 327.8988

EPHEMERIS_TYPE = 0
CLASSIFICATION_TYPE = U
NORAD_CAT_ID   = 5560
ELEMENT_SET_NO = 999
REV_AT_EPOCH   = 86488
BSTAR          = .10405128E-3
MEAN_MOTION_DOT = .409E-5
MEAN_MOTION_DDOT = 0

CCSDS_OMM_VERS = 2.0
CREATION_DATE  = 
ORIGINATOR     = 

OBJECT_NAME    = SL-8 R/B
OBJECT_ID      = 1971-119B
CENTER_NAME    = EARTH
REF_FRAME      = TEME
TIME_SYSTEM    = UTC
MEAN_ELEMENT_THEORY = SGP/SGP4

EPOCH          = 2026-03-27T14:32:36.785184
MEAN_MOTION    = 14.38204346
ECCENTRICITY   = .05465815
INCLINATION    = 73.8858
RA_OF_ASC_NODE = 142.2227
ARG_OF_PERICENTER = 105.0627
MEAN_ANOMALY   = 261.1658

EPHEMERIS_TYPE = 0
CLASSIFICATION_TYPE = U
NORAD_CAT_ID   = 5730
ELEMENT_SET_NO = 999
REV_AT_EPOCH   = 65806
BSTAR          = .36354188E-3
MEAN_MOTION_DOT = .6935E-4
MEAN_MOTION_DDOT = 0

CCSDS_OMM_VERS = 2.0
CREATION_DATE  = 
ORIGINATOR     = 

OBJECT_NAME    = OAO 3 (COPERNICUS)
OBJECT_ID      = 1972-065A
CENTER_NAME    = EARTH
REF_FRAME      = TEME
TIME_SYSTEM    = UTC
MEAN_ELEMENT_THEORY = SGP/SGP4

EPOCH          = 2026-03-27T13:50:08.907072
MEAN_MOTION    = 14.60011681
ECCENTRICITY   = .00072112
INCLINATION    = 35.0050
RA_OF_ASC_NODE = 195.4045
ARG_OF_PERICENTER = 304.3754
MEAN_ANOMALY   = 72.4796

EPHEMERIS_TYPE = 0
CLASSIFICATION_TYPE = U
NORAD_CAT_ID   = 6153
ELEMENT_SET_NO = 999
REV_AT_EPOCH   = 84881
BSTAR          = .67526424E-4
MEAN_MOTION_DOT = .308E-5
MEAN_MOTION_DDOT = 0

