ATLAS CENTAUR 2         
1 00694U 63047A   26086.43080282  .00002052  00000+0  23624-3 0  9996
2 00694  30.3569  96.4880 0547432 236.6552 118.0487 14.12135310134138
THOR AGENA D R/B        
1 00733U 64002A   26086.59344064  .00000175  00000+0  79594-4 0  9992
2 00733  99.1216 100.9066 0032509 204.7675 155.1949 14.34029199240861
SL-3 R/B                
1 00877U 64053B   26086.48470274  .00000165  00000+0  56130-4 0  9998
2 00877  65.0755 279.0643 0080368 286.6257  72.6030 14.61379854269399
SL-8 R/B                
1 02802U 67045B   26086.35986250  .00000277  00000+0  84246-4 0  9997
2 02802  74.0113 315.0908 0064828 317.4341  42.1801 14.45636329 91578
SL-8 R/B                
1 03230U 68040B   26086.61112775  .00003468  00000+0  25670-3 0  9991
2 03230  74.0292 277.0692 0023291  93.7770 266.6083 15.03372536 92701
OAO 2                   
1 03597U 68110A   26086.51281705  .00000207  00000+0  61027-4 0  9999
2 03597  34.9925 165.7095 0005846 335.3266  24.7144 14.47317427 21681
ISIS 1                  
1 03669U 69009A   26086.59706584  .00000100  00000+0  57068-4 0  9994
2 03669  88.4510 153.3545 1707860  53.0395 321.5145 11.30418681350554
SERT 2                  
1 04327U 70009A   26086.61524278  .00000000  00000+0  56330-4 0  9999
2 04327  99.2781  28.7301 0005611 114.2037  59.6014 13.58731435782323
SL-3 R/B                
1 05118U 71028B   26086.53048859  .00043578  00000+0  48223-3 0  9995
2 05118  81.2367  29.9701 0014253 210.9908 149.0506 15.62685847991451
ASTEX 1                 
1 05560U 71089A   26086.47939464  .00000409  00000+0  10405-3 0  9994
2 05560  92.7095 157.5097 0016581  32.3231 327.8988 14.50787331864887
SL-8 R/B                
1 05730U 71119B   26086.60598131  .00006935  00000+0  36354-3 0  9995
2 05730  73.8858 142.2227 0546581 105.0627 261.1658 14.38204346658065
OAO 3 (COPERNICUS)      
1 06153U 72065A   26086.57649198  .00000308  00000+0  67526-4 0  9996
2 06153  35.0050 195.4045 0007211 304.3754  72.4796 14.60011681848817
